{
    "links": {
        "self": "http://www.neowsapp.com/rest/v1/neo/3794978?api_key=iIulBulltgU6a56xZRHN4H3l9WmuAYTsLGpBGhQ2"
    },
    "id": "3794978",
    "neo_reference_id": "3794978",
    "name": "(2017 YM1)",
    "designation": "2017 YM1",
    "nasa_jpl_url": "http://ssd.jpl.nasa.gov/sbdb.cgi?sstr=3794978",
    "absolute_magnitude_h": 25.2,
    "estimated_diameter": {
        "kilometers": {
            "estimated_diameter_min": 0.0242412481,
            "estimated_diameter_max": 0.0542050786
        },
        "meters": {
            "estimated_diameter_min": 24.2412481101,
            "estimated_diameter_max": 54.2050786336
        },
        "miles": {
            "estimated_diameter_min": 0.0150628086,
            "estimated_diameter_max": 0.0336814639
        },
        "feet": {
            "estimated_diameter_min": 79.5316564495,
            "estimated_diameter_max": 177.8381901842
        }
    },
    "is_potentially_hazardous_asteroid": false,
    "close_approach_data": [
        {
            "close_approach_date": "2017-12-15",
            "close_approach_date_full": "2017-Dec-15 11:31",
            "epoch_date_close_approach": 1513337460000,
            "relative_velocity": {
                "kilometers_per_second": "11.6699223247",
                "kilometers_per_hour": "42011.7203690244",
                "miles_per_hour": "26104.4492481863"
            },
            "miss_distance": {
                "astronomical": "0.0034265112",
                "lunar": "1.3329128568",
                "kilometers": "512598.777051144",
                "miles": "318514.1103640272"
            },
            "orbiting_body": "Moon"
        },
        {
            "close_approach_date": "2017-12-15",
            "close_approach_date_full": "2017-Dec-15 12:44",
            "epoch_date_close_approach": 1513341840000,
            "relative_velocity": {
                "kilometers_per_second": "11.140388106",
                "kilometers_per_hour": "40105.397181479",
                "miles_per_hour": "24919.9341542362"
            },
            "miss_distance": {
                "astronomical": "0.0038954351",
                "lunar": "1.5153242539",
                "kilometers": "582748.793683237",
                "miles": "362103.3094411906"
            },
            "orbiting_body": "Earth"
        },
        {
            "close_approach_date": "2036-01-04",
            "close_approach_date_full": "2036-Jan-04 14:03",
            "epoch_date_close_approach": 2083068180000,
            "relative_velocity": {
                "kilometers_per_second": "14.9844625779",
                "kilometers_per_hour": "53944.0652805307",
                "miles_per_hour": "33518.7443405609"
            },
            "miss_distance": {
                "astronomical": "0.2007496018",
                "lunar": "78.0915951002",
                "kilometers": "30031712.832628166",
                "miles": "18660841.0394980508"
            },
            "orbiting_body": "Earth"
        }
    ],
    "orbital_data": {
        "orbit_id": "3",
        "orbit_determination_date": "2018-01-12 06:23:08",
        "first_observation_date": "2017-12-20",
        "last_observation_date": "2018-01-05",
        "data_arc_in_days": 16,
        "observations_used": 29,
        "orbit_uncertainty": "8",
        "minimum_orbit_intersection": ".000232533",
        "jupiter_tisserand_invariant": "4.023",
        "epoch_osculation": "2458111.5",
        "eccentricity": ".4379734137553105",
        "semi_major_axis": "1.71843171569755",
        "inclination": "15.53223820619717",
        "ascending_node_longitude": "84.00499194918363",
        "orbital_period": "822.804856012748",
        "perihelion_distance": ".9658043108680988",
        "perihelion_argument": "339.6516118919831",
        "aphelion_distance": "2.471059120527001",
        "perihelion_time": "2458086.740263650499",
        "mean_anomaly": "10.83307301929956",
        "mean_motion": ".4375278018466415",
        "equinox": "J2000",
        "orbit_class": {
            "orbit_class_type": "APO",
            "orbit_class_description": "Near-Earth asteroid orbits which cross the Earth’s orbit similar to that of 1862 Apollo",
            "orbit_class_range": "a (semi-major axis) > 1.0 AU; q (perihelion) < 1.017 AU"
        }
    },
    "is_sentry_object": false
}